[{"OBJECT_NAME":"STARLINK-34965","OBJECT_ID":"2025-175N","EPOCH":"2026-03-09T15:23:17.348928","MEAN_MOTION":15.05654944,"ECCENTRICITY":0.0003384,"INCLINATION":97.6003,"RA_OF_ASC_NODE":302.6166,"ARG_OF_PERICENTER":86.2228,"MEAN_ANOMALY":273.9386,"EPHEMERIS_TYPE":0,"CLASSIFICATION_TYPE":"U","NORAD_CAT_ID":65186,"ELEMENT_SET_NO":999,"REV_AT_EPOCH":3263,"BSTAR":0.00067479,"MEAN_MOTION_DOT":9.691e-5,"MEAN_MOTION_DDOT":0},{"OBJECT_NAME":"HELIOS 1A","OBJECT_ID":"1995-033A","EPOCH":"2026-03-09T15:20:38.403168","MEAN_MOTION":15.05208405,"ECCENTRICITY":0.0012543,"INCLINATION":98.2085,"RA_OF_ASC_NODE":312.7113,"ARG_OF_PERICENTER":11.1866,"MEAN_ANOMALY":348.9636,"EPHEMERIS_TYPE":0,"CLASSIFICATION_TYPE":"U","NORAD_CAT_ID":23605,"ELEMENT_SET_NO":999,"REV_AT_EPOCH":65318,"BSTAR":0.00025897,"MEAN_MOTION_DOT":3.631e-5,"MEAN_MOTION_DDOT":0}]
